NORAD_CAT_ID,OBJECT_NAME,OBJECT_TYPE,EPOCH,MEAN_MOTION,ECCENTRICITY,INCLINATION,RA_OF_ASC_NODE,ARG_OF_PERICENTER,MEAN_ANOMALY,BSTAR,MEAN_MOTION_DOT,MEAN_MOTION_DDOT,TLE_LINE0,TLE_LINE1,TLE_LINE2,SEMIMAJOR_AXIS,PERIOD,APOGEE,PERIGEE,DECAYED
49181.0,STARLINK-3059,PAYLOAD,2023-04-12 04:23:43,14.98330599,0.0003007,69.9995,93.4184,271.1044,88.977,-5.6833e-07,-1e-06,0.0,0 STARLINK-3059,1 49181U 21082BD  23102.18313729 -.00000100  00000-0 -56833-6 0  9992,2 49181  69.9995  93.4184 0003007 271.1044  88.9770 14.98330599 87993,6950.191,96.107,574.146,569.966,0.0
49181.0,STARLINK-3059,PAYLOAD,2023-04-12 10:48:15,14.98331707,0.0002972,69.9995,92.7447,270.2271,89.8547,2.5237e-05,2.08e-06,0.0,0 STARLINK-3059,1 49181U 21082BD  23102.45017574  .00000208  00000-0  25237-4 0  9990,2 49181  69.9995  92.7447 0002972 270.2271  89.8547 14.98331707 88051,6950.188,96.107,574.118,569.987,0.0
49181.0,STARLINK-3059,PAYLOAD,2023-04-13 09:14:07,14.98335091,0.0002702,69.9996,90.3877,268.2952,91.7898,-1.357e-05,-2.55e-06,0.0,0 STARLINK-3059,1 49181U 21082BD  23103.38481438 -.00000255  00000-0 -13570-4 0  9998,2 49181  69.9996  90.3877 0002702 268.2952  91.7898 14.98335091 88193,6950.177,96.107,573.92,570.164,0.0
49181.0,STARLINK-3059,PAYLOAD,2023-04-14 09:16:08,14.98336548,0.0002947,69.9998,87.8625,271.1291,88.953,0.00012701,1.423e-05,0.0,0 STARLINK-3059,1 49181U 21082BD  23104.38620890  .00001423  00000-0  12701-3 0  9996,2 49181  69.9998  87.8625 0002947 271.1291  88.9530 14.98336548 88321,6950.173,96.107,574.086,569.989,0.0
49181.0,STARLINK-3059,PAYLOAD,2023-04-14 23:41:21,14.98329869,0.0002821,70.0001,86.3474,271.1532,88.9303,2.1148e-05,1.59e-06,0.0,0 STARLINK-3059,1 49181U 21082BD  23104.98705545  .00000159  00000-0  21148-4 0  9994,2 49181  70.0001  86.3474 0002821 271.1532  88.9303 14.98329869 88410,6950.193,96.107,574.019,570.098,0.0
49181.0,STARLINK-3059,PAYLOAD,2023-04-15 07:42:01,14.98329291,0.0002808,70.0002,85.5057,271.6581,88.4256,2.5853e-05,2.16e-06,0.0,0 STARLINK-3059,1 49181U 21082BD  23105.32085586  .00000216  00000-0  25853-4 0  9990,2 49181  70.0002  85.5057 0002808 271.6581  88.4256 14.98329291 88481,6950.195,96.107,574.012,570.108,0.0
49181.0,STARLINK-3059,PAYLOAD,2023-04-15 15:42:42,14.98332517,0.0002771,70.0003,84.6641,272.2376,87.8466,1.794e-05,1.21e-06,0.0,0 STARLINK-3059,1 49181U 21082BD  23105.65465399  .00000121  00000-0  17940-4 0  9993,2 49181  70.0003  84.6641 0002771 272.2376  87.8466 14.98332517 88536,6950.185,96.107,573.976,570.124,0.0
49181.0,STARLINK-3059,PAYLOAD,2023-04-16 04:31:46,14.9833648,0.000282,70.0002,83.3184,268.6812,91.4024,2.7645e-05,2.37e-06,0.0,0 STARLINK-3059,1 49181U 21082BD  23106.18872962  .00000237  00000-0  27645-4 0  9991,2 49181  70.0002  83.3184 0002820 268.6812  91.4024 14.98336480 88592,6950.173,96.107,573.998,570.078,0.0
49181.0,STARLINK-3059,PAYLOAD,2023-04-16 09:20:10,14.98336948,0.0002816,70.0003,82.8134,268.3938,91.6899,3.2247e-05,2.92e-06,0.0,0 STARLINK-3059,1 49181U 21082BD  23106.38900849  .00000292  00000-0  32247-4 0  9994,2 49181  70.0003  82.8134 0002816 268.3938  91.6899 14.98336948 88640,6950.171,96.107,573.994,570.079,0.0
49181.0,STARLINK-3059,PAYLOAD,2023-04-17 04:33:47,14.98322455,0.0002826,70.0006,80.793,265.8941,94.1895,0.0001156,1.286e-05,0.0,0 STARLINK-3059,1 49181U 21082BD  23107.19013556  .00001286  00000-0  11560-3 0  9992,2 49181  70.0006  80.7930 0002826 265.8941  94.1895 14.98322455 88744,6950.216,96.107,574.045,570.117,0.0
49181.0,STARLINK-3059,PAYLOAD,2023-04-17 07:46:03,14.98326159,0.0002908,70.0005,80.4571,265.1342,94.9485,4.8655e-05,4.88e-06,0.0,0 STARLINK-3059,1 49181U 21082BD  23107.32365568  .00000488  00000-0  48655-4 0  9999,2 49181  70.0005  80.4571 0002908 265.1342  94.9485 14.98326159 88782,6950.205,96.107,574.091,570.049,0.0
49181.0,STARLINK-3059,PAYLOAD,2023-04-17 15:46:44,14.98329237,0.0003118,70.0,79.6146,269.6093,90.4709,2.1257e-05,1.61e-06,0.0,0 STARLINK-3059,1 49181U 21082BD  23107.65745437  .00000161  00000-0  21257-4 0  9999,2 49181  70.0000  79.6146 0003118 269.6093  90.4709 14.98329237 88837,6950.195,96.107,574.227,569.893,0.0
49181.0,STARLINK-3059,PAYLOAD,2023-04-18 07:48:04,14.98333132,0.0002994,70.0002,77.9314,268.4182,91.6634,3.0722e-05,2.74e-06,0.0,0 STARLINK-3059,1 49181U 21082BD  23108.32505160  .00000274  00000-0  30722-4 0  9993,2 49181  70.0002  77.9314 0002994 268.4182  91.6634 14.98333132 88934,6950.183,96.107,574.129,569.967,0.0
49181.0,STARLINK-3059,PAYLOAD,2023-04-18 15:48:44,14.98332536,0.0002962,70.0005,77.0893,269.3477,90.7343,1.9335e-05,1.38e-06,0.0,0 STARLINK-3059,1 49181U 21082BD  23108.65885211  .00000138  00000-0  19335-4 0  9993,2 49181  70.0005  77.0893 0002962 269.3477  90.7343 14.98332536 88969,6950.185,96.107,574.109,569.991,0.0
49181.0,STARLINK-3059,PAYLOAD,2023-04-19 07:50:05,14.9832993,0.0002812,70.0007,75.408,266.0372,94.0465,5.8138e-05,6.01e-06,0.0,0 STARLINK-3059,1 49181U 21082BD  23109.32645376  .00000601  00000-0  58138-4 0  9993,2 49181  70.0007  75.4080 0002812 266.0372  94.0465 14.98329930 89083,6950.193,96.107,574.013,570.104,0.0
49181.0,STARLINK-3059,PAYLOAD,2023-04-20 04:39:49,14.98372466,0.0002188,70.0013,73.2216,259.2145,100.8768,-0.00070196,-8.467e-05,0.0,0 STARLINK-3059,1 49181U 21082BD  23110.19432503 -.00008467  00000-0 -70196-3 0  9993,2 49181  70.0013  73.2216 0002188 259.2145 100.8768 14.98372466 89191,6950.062,96.104,573.447,570.406,0.0
49181.0,STARLINK-3059,PAYLOAD,2023-04-20 07:52:06,14.98329937,0.0002699,70.0014,72.8844,261.445,98.6403,6.8122e-05,7.2e-06,0.0,0 STARLINK-3059,1 49181U 21082BD  23110.32785342  .00000720  00000-0  68122-4 0  9999,2 49181  70.0014  72.8844 0002699 261.4450  98.6403 14.98329937 89235,6950.193,96.107,573.934,570.182,0.0
49181.0,STARLINK-3059,PAYLOAD,2023-04-20 23:53:28,14.98301589,0.0002787,70.0014,71.2014,265.4802,94.6038,0.00043975,5.154e-05,0.0,0 STARLINK-3059,1 49181U 21082BD  23110.99546314  .00005154  00000-0  43975-3 0  9990,2 49181  70.0014  71.2014 0002787 265.4802  94.6038 14.98301589 89312,6950.281,96.109,574.083,570.209,0.0
49181.0,STARLINK-3059,PAYLOAD,2023-04-21 06:17:59,14.98325334,0.0002594,70.0015,70.5279,260.5731,99.5134,-8.239e-06,-1.91e-06,0.0,0 STARLINK-3059,1 49181U 21082BD  23111.26249916 -.00000191  00000-0 -82390-5 0  9993,2 49181  70.0015  70.5279 0002594 260.5731  99.5134 14.98325334 89372,6950.207,96.107,573.875,570.269,0.0
49181.0,STARLINK-3059,PAYLOAD,2023-04-21 20:43:11,14.98333717,0.0002846,70.0008,69.0114,267.9612,92.1221,4.9223e-05,4.94e-06,0.0,0 STARLINK-3059,1 49181U 21082BD  23111.86333301  .00000494  00000-0  49223-4 0  9992,2 49181  70.0008  69.0114 0002846 267.9612  92.1221 14.98333717 89442,6950.181,96.107,574.024,570.068,0.0
49181.0,STARLINK-3059,PAYLOAD,2023-04-22 04:43:52,14.98336288,0.0002817,70.0009,68.1698,268.0746,92.009,7.6757e-05,8.23e-06,0.0,0 STARLINK-3059,1 49181U 21082BD  23112.19712987  .00000823  00000-0  76757-4 0  9998,2 49181  70.0009  68.1698 0002817 268.0746  92.0090 14.98336288 89515,6950.173,96.107,573.996,570.081,0.0
49181.0,STARLINK-3059,PAYLOAD,2023-04-22 06:19:59,14.98337481,0.0002804,70.0009,68.0015,268.6229,91.4609,8.9702e-05,9.78e-06,0.0,0 STARLINK-3059,1 49181U 21082BD  23112.26388858  .00000978  00000-0  89702-4 0  9997,2 49181  70.0009  68.0015 0002804 268.6229  91.4609 14.98337481 89521,6950.17,96.107,573.984,570.086,0.0
49181.0,STARLINK-3059,PAYLOAD,2023-04-23 06:22:02,14.98296204,0.0002667,70.0011,65.4764,265.8286,94.2569,0.00055597,6.541e-05,0.0,0 STARLINK-3059,1 49181U 21082BD  23113.26530421  .00006541  00000-0  55597-3 0  9999,2 49181  70.0011  65.4764 0002667 265.8286  94.2569 14.98296204 89674,6950.297,96.109,574.016,570.309,0.0
49181.0,STARLINK-3059,PAYLOAD,2023-04-24 06:24:01,14.9834694,0.0002913,70.0015,62.95,270.3694,89.7131,0.00012059,1.347e-05,0.0,0 STARLINK-3059,1 49181U 21082BD  23114.26667849  .00001347  00000-0  12059-3 0  9990,2 49181  70.0015  62.9500 0002913 270.3694  89.7131 14.98346940 89820,6950.141,96.106,574.03,569.981,0.0
49181.0,STARLINK-3059,PAYLOAD,2023-04-25 03:13:45,14.98339217,0.0002876,70.001,60.7618,268.478,91.6049,8.2992e-05,8.98e-06,0.0,0 STARLINK-3059,1 49181U 21082BD  23115.13455816  .00000898  00000-0  82992-4 0  9990,2 49181  70.0010  60.7618 0002876 268.4780  91.6049 14.98339217 89934,6950.164,96.106,574.028,570.031,0.0
49181.0,STARLINK-3059,PAYLOAD,2023-04-25 06:26:01,14.98340497,0.0002832,70.0013,60.4257,268.2398,91.8437,9.4324e-05,1.033e-05,0.0,0 STARLINK-3059,1 49181U 21082BD  23115.26807610  .00001033  00000-0  94324-4 0  9991,2 49181  70.0013  60.4257 0002832 268.2398  91.8437 14.98340497 89977,6950.16,96.106,573.994,570.057,0.0
49181.0,STARLINK-3059,PAYLOAD,2023-04-26 06:28:05,14.98313307,0.0002907,70.0012,57.902,269.1386,90.944,-0.00033968,-4.142e-05,0.0,0 STARLINK-3059,1 49181U 21082BD  23116.26951117 -.00004142  00000-0 -33968-3 0  9996,2 49181  70.0012  57.9020 0002907 269.1386  90.9440 14.98313307 90128,6950.245,96.108,574.13,570.089,0.0
49181.0,STARLINK-3059,PAYLOAD,2023-04-27 04:53:58,14.98324013,0.0002362,70.0024,55.5457,286.6428,73.4472,-5.8946e-05,-7.96e-06,0.0,0 STARLINK-3059,1 49181U 21082BD  23117.20414368 -.00000796  00000-0 -58946-4 0  9998,2 49181  70.0024  55.5457 0002362 286.6428  73.4472 14.98324013 90245,6950.211,96.107,573.718,570.435,0.0
49181.0,STARLINK-3059,PAYLOAD,2023-04-27 06:30:05,14.9832511,0.0002341,70.0023,55.3762,281.4614,78.6282,-4.907e-05,-6.78e-06,0.0,0 STARLINK-3059,1 49181U 21082BD  23117.27090269 -.00000678  00000-0 -49070-4 0  9992,2 49181  70.0023  55.3762 0002341 281.4614  78.6282 14.98325110 90276,6950.208,96.107,573.7,570.446,0.0
49181.0,STARLINK-3059,PAYLOAD,2023-04-27 20:55:17,14.98326647,0.0002917,70.0005,53.863,267.847,92.2355,0.00037327,4.363e-05,0.0,0 STARLINK-3059,1 49181U 21082BD  23117.87173147  .00004363  00000-0  37327-3 0  9999,2 49181  70.0005  53.8630 0002917 267.8470  92.2355 14.98326647 90347,6950.203,96.107,574.096,570.041,0.0
